{"spkid": "20809875", "covariance": {"data": [["4.519770919303572E-15", "-7.251771645545227E-15", "3.037307465980162E-13", "1.819640278648434E-14", "1.010137847306456E-12", "-6.977419224961996E-14"], ["-7.251771645545227E-15", "1.166724717916131E-14", "-5.359527200413204E-13", "-2.888769786317538E-14", "-1.626292229480511E-12", "1.154362581102809E-13"], ["3.037307465980162E-13", "-5.359527200413204E-13", "9.949856414631397E-11", "1.157887940358684E-12", "8.10297995309045E-11", "5.690242549582085E-12"], ["1.819640278648434E-14", "-2.888769786317538E-14", "1.157887940358684E-12", "1.331702440627117E-12", "2.535180005048947E-12", "3.553478193780789E-12"], ["1.010137847306456E-12", "-1.626292229480511E-12", "8.10297995309045E-11", "2.535180005048947E-12", "2.337048313538586E-10", "-4.05685242539003E-12"], ["-6.977419224961996E-14", "1.154362581102809E-13", "5.690242549582085E-12", "3.553478193780789E-12", "-4.05685242539003E-12", "3.035134676649734E-10"]], "elements": [{"label": "e", "sigma": 6.72292415493703e-08, "name": "e", "units": null, "value": ".526826106241605", "title": "eccentricity"}, {"sigma": 1.08015032190716e-07, "name": "q", "units": "au", "title": "perihelion distance", "value": ".7566263623875239", "label": "q"}, {"label": "tp", "units": "TDB", "title": "time of perihelion passage", "value": "2458191.176077092002", "sigma": 9.97489669852846e-06, "name": "tp"}, {"label": "node", "title": "longitude of the ascending node", "value": "132.9140739102807", "units": "deg", "sigma": 1.15399412504012e-06, "name": "om"}, {"title": "argument of perihelion", "value": "70.52908052983159", "units": "deg", "name": "w", "sigma": 1.52874076073695e-05, "label": "peri"}, {"label": "i", "name": "i", "sigma": 1.74216379156775e-05, "title": "inclination", "value": "40.07236344239856", "units": "deg"}], "labels": ["e", "q", "tp", "node", "peri", "i"], "epoch": "2458537.5"}, "elements": [{"label": "e", "name": "e", "sigma": "6.6987E-8", "title": "eccentricity", "value": ".5272100486598518", "units": null}, {"sigma": "1.184E-8", "name": "a", "title": "semi-major axis", "value": "1.600616810083708", "units": "au", "label": "a"}, {"title": "perihelion distance", "value": ".7567555437536996", "units": "au", "sigma": "1.0824E-7", "name": "q", "label": "q"}, {"sigma": "1.7424E-5", "name": "i", "units": "deg", "value": "40.05685148029977", "title": "inclination; angle with respect to x-y ecliptic plane", "label": "i"}, {"units": "deg", "title": "longitude of the ascending node", "value": "132.840257421158", "name": "om", "sigma": "1.1599E-6", "label": "node"}, {"label": "peri", "value": "70.48374404337996", "title": "argument of perihelion", "units": "deg", "name": "w", "sigma": "1.5235E-5"}, {"label": "M", "sigma": "1.2177E-5", "name": "ma", "title": "mean anomaly", "value": "25.52466754625671", "units": "deg"}, {"label": "tp", "value": "2461148.057053947109", "title": "time of perihelion passage", "units": "TDB", "sigma": "2.4447E-5", "name": "tp"}, {"label": "period", "sigma": "8.207E-6", "name": "per", "units": "d", "value": "739.655493840493", "title": "sidereal orbital period"}, {"title": "mean motion", "value": ".4867130752058392", "units": "deg/d", "name": "n", "sigma": "5.4005E-9", "label": "n"}, {"name": "ad", "sigma": "1.8082E-8", "title": "aphelion distance", "value": "2.444478076413716", "units": "au", "label": "Q"}], "epoch": "2461200.5"}